{"type": "FeatureCollection", "features": [ {"type": "Feature", "properties": {"norad_id": 33768, "name": "COSMOS 2251 DEB", "group": "cosmos-2251-debris", "lat": -59.999201704165024, "lon": 88.1942028280293, "alt_km": 1291.5660049273883, "timestamp": "2025-12-01T03:58:49.143580+00:00", "meta": {"OBJECT_NAME": "COSMOS 2251 DEB", "OBJECT_ID": "1993-036R", "EPOCH": "2025-11-30T18:13:44.999904", "MEAN_MOTION": 13.58438841, "ECCENTRICITY": 0.0365738, "INCLINATION": 74.0687, "RA_OF_ASC_NODE": 239.2002, "ARG_OF_PERICENTER": 39.5996, "MEAN_ANOMALY": 20.2252, "EPHEMERIS_TYPE": 0, "CLASSIFICATION_TYPE": "U", "NORAD_CAT_ID": 33768, "ELEMENT_SET_NO": 999, "REV_AT_EPOCH": 83133, "BSTAR": 0.00035774, "MEAN_MOTION_DOT": 3.83e-06, "MEAN_MOTION_DDOT": 0, "GROUP": "cosmos-2251-debris"}, "tle": {"line1": "1 33768U 93036R   25334.75954861  .00000383  00000+0  35774-3 0  9992", "line2": "2 33768  74.0687 239.2002 0365738  39.5996  20.2252 13.58438841831338"}}, "geometry": {"type": "Point", "coordinates": [88.1942028280293, -59.999201704165024]}}, {"type": "Feature", "properties": {"norad_id": 33779, "name": "COSMOS 2251 DEB", "group": "cosmos-2251-debris", "lat": -33.10600689552587, "lon": -177.59318193130687, "alt_km": 667.9701910428321, "timestamp": "2025-12-01T03:58:49.143591+00:00", "meta": {"OBJECT_NAME": "COSMOS 2251 DEB", "OBJECT_ID": "1993-036U", "EPOCH": "2025-11-30T15:20:54.635136", "MEAN_MOTION": 14.7010664, "ECCENTRICITY": 0.0018016, "INCLINATION": 74.0447, "RA_OF_ASC_NODE": 194.1776, "ARG_OF_PERICENTER": 229.9416, "MEAN_ANOMALY": 190.9717, "EPHEMERIS_TYPE": 0, "CLASSIFICATION_TYPE": "U", "NORAD_CAT_ID": 33779, "ELEMENT_SET_NO": 999, "REV_AT_EPOCH": 88350, "BSTAR": 0.0010729, "MEAN_MOTION_DOT": 6.44e-05, "MEAN_MOTION_DDOT": 0, "GROUP": "cosmos-2251-debris"}, "tle": {"line1": "1 33779U 93036U   25334.63952124  .00006440  00000+0  10729-2 0  9993", "line2": "2 33779  74.0447 194.1776 0018016 229.9416 190.9717 14.70106640883508"}}, "geometry": {"type": "Point", "coordinates": [-177.59318193130687, -33.10600689552587]}}, {"type": "Feature", "properties": {"norad_id": 33782, "name": "COSMOS 2251 DEB", "group": "cosmos-2251-debris", "lat": -63.28042599640441, "lon": 153.6176385571349, "alt_km": 770.7155746496373, "timestamp": "2025-12-01T03:58:49.143602+00:00", "meta": {"OBJECT_NAME": "COSMOS 2251 DEB", "OBJECT_ID": "1993-036X", "EPOCH": "2025-11-30T15:59:59.663328", "MEAN_MOTION": 14.40390097, "ECCENTRICITY": 0.0020225, "INCLINATION": 74.0325, "RA_OF_ASC_NODE": 299.8742, "ARG_OF_PERICENTER": 6.9103, "MEAN_ANOMALY": 174.1186, "EPHEMERIS_TYPE": 0, "CLASSIFICATION_TYPE": "U", "NORAD_CAT_ID": 33782, "ELEMENT_SET_NO": 999, "REV_AT_EPOCH": 87952, "BSTAR": 0.00045916, "MEAN_MOTION_DOT": 1.435e-05, "MEAN_MOTION_DDOT": 0, "GROUP": "cosmos-2251-debris"}, "tle": {"line1": "1 33782U 93036X   25334.66666277  .00001435  00000+0  45916-3 0  9997", "line2": "2 33782  74.0325 299.8742 0020225   6.9103 174.1186 14.40390097879523"}}, "geometry": {"type": "Point", "coordinates": [153.6176385571349, -63.28042599640441]}}, {"type": "Feature", "properties": {"norad_id": 33785, "name": "COSMOS 2251 DEB", "group": "cosmos-2251-debris", "lat": -58.242269687898464, "lon": 54.72906075515017, "alt_km": 667.0639050401169, "timestamp": "2025-12-01T03:58:49.143612+00:00", "meta": {"OBJECT_NAME": "COSMOS 2251 DEB", "OBJECT_ID": "1993-036AA", "EPOCH": "2025-11-30T07:10:07.847616", "MEAN_MOTION": 14.70019652, "ECCENTRICITY": 0.00210651, "INCLINATION": 73.8663, "RA_OF_ASC_NODE": 84.3076, "ARG_OF_PERICENTER": 27.3994, "MEAN_ANOMALY": 3.4816, "EPHEMERIS_TYPE": 0, "CLASSIFICATION_TYPE": "U", "NORAD_CAT_ID": 33785, "ELEMENT_SET_NO": 999, "REV_AT_EPOCH": 88324, "BSTAR": 0.0020972411, "MEAN_MOTION_DOT": 0.00012617, "MEAN_MOTION_DDOT": 0, "GROUP": "cosmos-2251-debris"}, "tle": {"line1": "1 33785U 93036AA  25334.29870194  .00012617  00000+0  20972-2 0  9992", "line2": "2 33785  73.8663  84.3076 0021065  27.3994   3.4816 14.70019652883249"}}, "geometry": {"type": "Point", "coordinates": [54.72906075515017, -58.242269687898464]}}, {"type": "Feature", "properties": {"norad_id": 33789, "name": "COSMOS 2251 DEB", "group": "cosmos-2251-debris", "lat": -74.03699739632923, "lon": 19.749583344936067, "alt_km": 814.6562415324388, "timestamp": "2025-12-01T03:58:49.143624+00:00", "meta": {"OBJECT_NAME": "COSMOS 2251 DEB", "OBJECT_ID": "1993-036AE", "EPOCH": "2025-11-30T18:37:37.629408", "MEAN_MOTION": 13.88749758, "ECCENTRICITY": 0.0240537, "INCLINATION": 74.0632, "RA_OF_ASC_NODE": 107.7092, "ARG_OF_PERICENTER": 225.9634, "MEAN_ANOMALY": 255.2021, "EPHEMERIS_TYPE": 0, "CLASSIFICATION_TYPE": "U", "NORAD_CAT_ID": 33789, "ELEMENT_SET_NO": 999, "REV_AT_EPOCH": 84929, "BSTAR": 0.00073625, "MEAN_MOTION_DOT": 1.095e-05, "MEAN_MOTION_DDOT": 0, "GROUP": "cosmos-2251-debris"}, "tle": {"line1": "1 33789U 93036AE  25334.77612997  .00001095  00000+0  73625-3 0  9996", "line2": "2 33789  74.0632 107.7092 0240537 225.9634 255.2021 13.88749758849291"}}, "geometry": {"type": "Point", "coordinates": [19.749583344936067, -74.03699739632923]}}, {"type": "Feature", "properties": {"norad_id": 33791, "name": "COSMOS 2251 DEB", "group": "cosmos-2251-debris", "lat": 40.368998556726844, "lon": 72.8454890009515, "alt_km": 762.6938411923993, "timestamp": "2025-12-01T03:58:49.143634+00:00", "meta": {"OBJECT_NAME": "COSMOS 2251 DEB", "OBJECT_ID": "1993-036AG", "EPOCH": "2025-11-30T14:57:31.837824", "MEAN_MOTION": 14.43028793, "ECCENTRICITY": 0.0030535, "INCLINATION": 74.1755, "RA_OF_ASC_NODE": 59.8917, "ARG_OF_PERICENTER": 259.0128, "MEAN_ANOMALY": 205.7784, "EPHEMERIS_TYPE": 0, "CLASSIFICATION_TYPE": "U", "NORAD_CAT_ID": 33791, "ELEMENT_SET_NO": 999, "REV_AT_EPOCH": 87877, "BSTAR": 0.00063712, "MEAN_MOTION_DOT": 2.121e-05, "MEAN_MOTION_DDOT": 0, "GROUP": "cosmos-2251-debris"}, "tle": {"line1": "1 33791U 93036AG  25334.62328516  .00002121  00000+0  63712-3 0  9991", "line2": "2 33791  74.1755  59.8917 0030535 259.0128 205.7784 14.43028793878777"}}, "geometry": {"type": "Point", "coordinates": [72.8454890009515, 40.368998556726844]}}, {"type": "Feature", "properties": {"norad_id": 33792, "name": "COSMOS 2251 DEB", "group": "cosmos-2251-debris", "lat": -4.129273998834747, "lon": -174.97837656261953, "alt_km": 1206.4170117425347, "timestamp": "2025-12-01T03:58:49.143645+00:00", "meta": {"OBJECT_NAME": "COSMOS 2251 DEB", "OBJECT_ID": "1993-036AH", "EPOCH": "2025-11-30T13:23:39.427872", "MEAN_MOTION": 13.45796883, "ECCENTRICITY": 0.0426829, "INCLINATION": 73.9013, "RA_OF_ASC_NODE": 4.7971, "ARG_OF_PERICENTER": 71.7322, "MEAN_ANOMALY": 44.5174, "EPHEMERIS_TYPE": 0, "CLASSIFICATION_TYPE": "U", "NORAD_CAT_ID": 33792, "ELEMENT_SET_NO": 999, "REV_AT_EPOCH": 82278, "BSTAR": 0.00054674, "MEAN_MOTION_DOT": 5.47e-06, "MEAN_MOTION_DDOT": 0, "GROUP": "cosmos-2251-debris"}, "tle": {"line1": "1 33792U 93036AH  25334.55809523  .00000547  00000+0  54674-3 0  9993", "line2": "2 33792  73.9013   4.7971 0426829  71.7322  44.5174 13.45796883822786"}}, "geometry": {"type": "Point", "coordinates": [-174.97837656261953, -4.129273998834747]}}, {"type": "Feature", "properties": {"norad_id": 33793, "name": "COSMOS 2251 DEB", "group": "cosmos-2251-debris", "lat": -24.46781519313473, "lon": -1.536247560533491, "alt_km": 830.6099379286916, "timestamp": "2025-12-01T03:58:49.143655+00:00", "meta": {"OBJECT_NAME": "COSMOS 2251 DEB", "OBJECT_ID": "1993-036AJ", "EPOCH": "2025-11-30T15:32:08.090304", "MEAN_MOTION": 14.27659935, "ECCENTRICITY": 0.0078105, "INCLINATION": 73.9798, "RA_OF_ASC_NODE": 171.8934, "ARG_OF_PERICENTER": 324.3629, "MEAN_ANOMALY": 97.8793, "EPHEMERIS_TYPE": 0, "CLASSIFICATION_TYPE": "U", "NORAD_CAT_ID": 33793, "ELEMENT_SET_NO": 999, "REV_AT_EPOCH": 87034, "BSTAR": 0.00061237, "MEAN_MOTION_DOT": 1.533e-05, "MEAN_MOTION_DDOT": 0, "GROUP": "cosmos-2251-debris"}, "tle": {"line1": "1 33793U 93036AJ  25334.64731586  .00001533  00000+0  61237-3 0  9996", "line2": "2 33793  73.9798 171.8934 0078105 324.3629  97.8793 14.27659935870349"}}, "geometry": {"type": "Point", "coordinates": [-1.536247560533491, -24.46781519313473]}}, {"type": "Feature", "properties": {"norad_id": 33795, "name": "COSMOS 2251 DEB", "group": "cosmos-2251-debris", "lat": 11.439813273491358, "lon": -82.86715364669172, "alt_km": 531.2829045426588, "timestamp": "2025-12-01T03:58:49.143666+00:00", "meta": {"OBJECT_NAME": "COSMOS 2251 DEB", "OBJECT_ID": "1993-036AL", "EPOCH": "2025-11-30T18:12:02.805984", "MEAN_MOTION": 15.04740822, "ECCENTRICITY": 0.0033692, "INCLINATION": 74.0309, "RA_OF_ASC_NODE": 101.289, "ARG_OF_PERICENTER": 188.2339, "MEAN_ANOMALY": 293.4527, "EPHEMERIS_TYPE": 0, "CLASSIFICATION_TYPE": "U", "NORAD_CAT_ID": 33795, "ELEMENT_SET_NO": 999, "REV_AT_EPOCH": 89841, "BSTAR": 0.0016956, "MEAN_MOTION_DOT": 0.00024244, "MEAN_MOTION_DDOT": 0, "GROUP": "cosmos-2251-debris"}, "tle": {"line1": "1 33795U 93036AL  25334.75836581  .00024244  00000+0  16956-2 0  9992", "line2": "2 33795  74.0309 101.2890 0033692 188.2339 293.4527 15.04740822898415"}}, "geometry": {"type": "Point", "coordinates": [-82.86715364669172, 11.439813273491358]}}]}